*******************************************************************************
Ephemeris / WWW_USER Mon Mar 26 20:55:11 2018 Pasadena, USA      / Horizons    
*******************************************************************************
Target body name: Jupiter (599)                   {source: jup341}
Center body name: Jupiter Barycenter (5)          {source: DE431mx}
Center-site name: BODY CENTER
*******************************************************************************
Start time      : A.D. 2000-Jan-01 00:00:00.0000 TDB
Stop  time      : A.D. 2010-Jan-01 00:00:00.0000 TDB
Step-size       : 7200 minutes
*******************************************************************************
Center geodetic : 0.00000000,0.00000000,0.0000000 {E-lon(deg),Lat(deg),Alt(km)}
Center cylindric: 0.00000000,0.00000000,0.0000000 {E-lon(deg),Dxy(km),Dz(km)}
Center radii    : (undefined)                                                  
Output units    : AU-D                                                         
Output type     : GEOMETRIC cartesian states
Output format   : 2 (position and velocity)
Reference frame : ICRF/J2000.0                                                 
Coordinate systm: Ecliptic and Mean Equinox of Reference Epoch                 
*******************************************************************************
JDTDB
   X     Y     Z
   VX    VY    VZ
*******************************************************************************
$$SOE
2455114.500000000 = A.D. 2009-Oct-10 00:00:00.0000 TDB 
   3.300671843962706E-08 -1.113465501670727E-07 -1.949837818223313E-09
  -5.572691762425532E-07  4.169842799803747E-07  1.012426554469146E-08
2455119.500000000 = A.D. 2009-Oct-15 00:00:00.0000 TDB 
   5.668107556062499E-07 -1.030270256300080E-06 -2.859617764492460E-08
   7.270269755299606E-07  4.901062746819736E-07  2.420917742114824E-08
2455124.500000000 = A.D. 2009-Oct-20 00:00:00.0000 TDB 
  -8.953636530864057E-08  8.812847818927680E-07  2.835454033097766E-08
  -1.922736821863645E-07  1.109266290739512E-07  1.826339078027006E-09
2455129.500000000 = A.D. 2009-Oct-25 00:00:00.0000 TDB 
  -4.701120821929667E-07  2.734393461235589E-07  4.654109407234769E-09
   5.531603523310409E-08 -3.129773031715456E-07 -8.700151104636619E-09
2455134.500000000 = A.D. 2009-Oct-30 00:00:00.0000 TDB 
   4.261246355715642E-07 -1.260985587765272E-06 -3.901929689943311E-08
   8.489266760958355E-07 -2.708532984319599E-08  9.969444450340754E-09
2455139.500000000 = A.D. 2009-Nov-04 00:00:00.0000 TDB 
  -6.581548432418256E-08  5.798357722464923E-07  1.920207796674700E-08
  -7.044566609928217E-07 -5.515944402039837E-07 -2.999420093816580E-08
2455144.500000000 = A.D. 2009-Nov-09 00:00:00.0000 TDB 
  -4.209540813718194E-07  9.673733973204484E-07  2.820016448499774E-08
  -8.423911009643698E-07  7.671707926229338E-08 -9.002015499655569E-09
2455149.500000000 = A.D. 2009-Nov-14 00:00:00.0000 TDB 
   4.956639754937029E-07 -9.056003179961196E-07 -2.446025670157304E-08
   4.294974300168173E-07  9.662145084926607E-07  4.244201830760378E-08
2455154.500000000 = A.D. 2009-Nov-19 00:00:00.0000 TDB 
   2.366595074172234E-07 -5.028388641471298E-07 -1.436161647159180E-08
   7.772519348685244E-07 -1.293260607621898E-07  3.240187920698108E-09
2455159.500000000 = A.D. 2009-Nov-24 00:00:00.0000 TDB 
  -4.130429432093544E-07  1.039829675214024E-06  2.948613315058629E-08
  -2.605305352424186E-07 -4.019533914874313E-07 -1.717786833642309E-08
2455164.500000000 = A.D. 2009-Nov-29 00:00:00.0000 TDB 
  -1.970808758607441E-07 -2.454316569894840E-07 -9.658316878273029E-09
  -1.637594520951340E-07 -2.822318465031196E-07 -9.709058981332423E-09
2455169.500000000 = A.D. 2009-Dec-04 00:00:00.0000 TDB 
   4.081672087831993E-07 -9.479175993341720E-07 -2.822901107325956E-08
   3.762215196681767E-07 -3.085639203095802E-08  9.735257459717894E-10
2455174.500000000 = A.D. 2009-Dec-09 00:00:00.0000 TDB 
  -6.647068934346674E-08  1.147490505752855E-06  3.863031585831211E-08
  -9.839918094730426E-07  1.481096914358568E-07 -7.576350319550184E-09
2455179.500000000 = A.D. 2009-Dec-14 00:00:00.0000 TDB 
  -2.586963750137186E-07  2.762341787383698E-07  7.320663184816711E-09
  -7.624218306763279E-08  3.567956229653320E-07  1.247402356798186E-08
2455184.500000000 = A.D. 2009-Dec-19 00:00:00.0000 TDB 
   5.450799631336412E-07 -1.359522427195617E-06 -4.074136544221955E-08
   1.225597422465831E-06  4.992933335260594E-07  3.466025457617242E-08
2455189.500000000 = A.D. 2009-Dec-24 00:00:00.0000 TDB 
  -1.528616251066917E-07  3.898751951400858E-07  1.165991911306226E-08
  -1.649154862689710E-08 -7.957821680293561E-07 -2.971768799732120E-08
2455194.500000000 = A.D. 2009-Dec-29 00:00:00.0000 TDB 
  -5.035198532357831E-07  9.209086117886345E-07  2.487456376744800E-08
  -6.632396640523689E-07 -4.562943696367161E-07 -2.493836100097575E-08
